*******************************************************************************
JPL/HORIZONS               210 Isabella (A879 VA)          2023-Sep-04 11:05:01
Rec #:     210 (+COV) Soln.date: 2023-Aug-22_16:24:21   # obs: 5011 (1885-2023)
 
IAU76/J2000 helio. ecliptic osc. elements (au, days, deg., period=Julian yrs):
 
  EPOCH=  2457094.5 ! 2015-Mar-13.00 (TDB)         Residual RMS= .27993
   EC= .1211740728441084   QR= 2.392675781493655   TP= 2456899.7768831933
   OM= 32.64805043685328   W=  14.75629828718081   IN= 5.25565181596135
   A= 2.722582149160043    MA= 42.72185456573001   ADIST= 3.052488516826432
   PER= 4.49241            N= .21939796            ANGMOM= .028174738
   DAN= 2.40124            DDN= 3.03867            L= 47.3450027
   B= 1.3369027            MOID= 1.40254998        TP= 2014-Aug-30.2768831933
 
Asteroid physical parameters (km, seconds, rotational period in hours):
   GM= n.a.                RAD= 43.325             ROTPER= 6.672
   H= 9.44                 G= .150                 B-V= .667
                           ALBEDO= .0436           STYP= Cb

ASTEROID comments: 
1: soln ref.= JPL#128, OCC=0
2: source=ORB
*******************************************************************************


*******************************************************************************
Ephemeris / API_USER Mon Sep  4 11:05:01 2023 Pasadena, USA      / Horizons
*******************************************************************************
Target body name: 210 Isabella (A879 VA)          {source: JPL#128}
Center body name: Solar System Barycenter (0)     {source: DE441}
Center-site name: BODY CENTER
*******************************************************************************
Start time      : A.D. 2023-Aug-12 00:00:00.0000 TDB
Stop  time      : A.D. 2023-Aug-13 00:00:00.0000 TDB
Step-size       : 2880 minutes
*******************************************************************************
Center geodetic : 0.0, 0.0, 0.0                   {E-lon(deg),Lat(deg),Alt(km)}
Center cylindric: 0.0, 0.0, 0.0                   {E-lon(deg),Dxy(km),Dz(km)}
Center radii    : (undefined)
Small perturbers: Yes                             {source: SB441-N16}
Output units    : KM-S
Calendar mode   : Mixed Julian/Gregorian
Output type     : GEOMETRIC cartesian states
Output format   : 2 (position and velocity)
Reference frame : Ecliptic of J2000.0
*******************************************************************************
Initial IAU76/J2000 heliocentric ecliptic osculating elements (au, days, deg.):
  EPOCH=  2457094.5 ! 2015-Mar-13.00 (TDB)         Residual RMS= .27993        
   EC= .1211740728441084   QR= 2.392675781493655   TP= 2456899.7768831933      
   OM= 32.64805043685328   W=  14.75629828718081   IN= 5.25565181596135        
  Equivalent ICRF heliocentric cartesian coordinates (au, au/d):
   X=-4.573870214430396E-01  Y= 2.163241305071081E+00  Z= 1.169437436364658E+00
  VX=-1.124668390886267E-02 VY=-1.196943835609791E-03 VZ=-3.451985593139455E-06
Asteroid physical parameters (km, seconds, rotational period in hours):        
   GM= n.a.                RAD= 43.325             ROTPER= 6.672               
   H= 9.44                 G= .150                 B-V= .667                   
                           ALBEDO= .0436           STYP= Cb                    
*******************************************************************************
JDTDB
   X     Y     Z
   VX    VY    VZ
*******************************************************************************
$$SOE
2460168.500000000 = A.D. 2023-Aug-12 00:00:00.0000 TDB 
 X = 2.550701824606236E+08 Y = 2.477837368674501E+08 Z = 6.580239022617236E+06
 VX=-1.425044431071845E+01 VY= 1.453120284694091E+01 VZ= 1.835137802739534E+00
$$EOE
*******************************************************************************
 
TIME

  Barycentric Dynamical Time ("TDB" or T_eph) output was requested. This
continuous coordinate time is equivalent to the relativistic proper time
of a clock at rest in a reference frame co-moving with the solar system
barycenter but outside the system's gravity well. It is the independent
variable in the solar system relativistic equations of motion.

  TDB runs at a uniform rate of one SI second per second and is independent
of irregularities in Earth's rotation.
 
CALENDAR SYSTEM

  Mixed calendar mode was active such that calendar dates after AD 1582-Oct-15
(if any) are in the modern Gregorian system. Dates prior to 1582-Oct-5 (if any)
are in the Julian calendar system, which is automatically extended for dates
prior to its adoption on 45-Jan-1 BC.  The Julian calendar is useful for
matching historical dates. The Gregorian calendar more accurately corresponds
to the Earth's orbital motion and seasons. A "Gregorian-only" calendar mode is
available if such physical events are the primary interest.

REFERENCE FRAME AND COORDINATES

  Ecliptic at the standard reference epoch

    Reference epoch: J2000.0
    X-Y plane: adopted Earth orbital plane at the reference epoch
               Note: IAU76 obliquity of 84381.448 arcseconds wrt ICRF X-Y plane
    X-axis   : ICRF
    Z-axis   : perpendicular to the X-Y plane in the directional (+ or -) sense
               of Earth's north pole at the reference epoch.

  Symbol meaning:

    JDTDB    Julian Day Number, Barycentric Dynamical Time
      X      X-component of position vector (km)
      Y      Y-component of position vector (km)
      Z      Z-component of position vector (km)
      VX     X-component of velocity vector (km/sec)                           
      VY     Y-component of velocity vector (km/sec)                           
      VZ     Z-component of velocity vector (km/sec)                           

ABERRATIONS AND CORRECTIONS

 Geometric state vectors have NO corrections or aberrations applied.

Computations by ...

    Solar System Dynamics Group, Horizons On-Line Ephemeris System
    4800 Oak Grove Drive, Jet Propulsion Laboratory
    Pasadena, CA  91109   USA

    General site: https://ssd.jpl.nasa.gov/
    Mailing list: https://ssd.jpl.nasa.gov/email_list.html
    System news : https://ssd.jpl.nasa.gov/horizons/news.html
    User Guide  : https://ssd.jpl.nasa.gov/horizons/manual.html
    Connect     : browser        https://ssd.jpl.nasa.gov/horizons/app.html#/x
                  API            https://ssd-api.jpl.nasa.gov/doc/horizons.html
                  command-line   telnet ssd.jpl.nasa.gov 6775
                  e-mail/batch   https://ssd.jpl.nasa.gov/ftp/ssd/hrzn_batch.txt
                  scripts        https://ssd.jpl.nasa.gov/ftp/ssd/SCRIPTS
    Author      : Jon.D.Giorgini@jpl.nasa.gov
*******************************************************************************
